Type,ModifyDate,Image,ListingID,Name,Description,ContactName,ContactEmail,ContactPhone,Website,Facebook,Twitter,Instagram,Pinterest,Youtube,Blog,Address,State,City,Street,Zip,Longitude,Latitude,Dates,Products
on-farm market,"Apr 11th, 2015",default-onfarmmarket-4-3.jpg,701244,Raven's Roost Farm,,DOUGLAS BEDELL,bedell.doug@gmail.com,2313506448,,https://www.facebook.com/pages/Ravens-Roost-Farm/244514162293833,,,,,,"2398 Vandermark Rd, Bellaire, Michigan 49615",Michigan,Bellaire,2398 Vandermark Rd,49615,-85.241874,44.9987500,,
on-farm market,"Apr 1st, 2015",default-onfarmmarket-4-3.jpg,700926,Hickory Corners Homestead,,Layne Hagerman,hickorycornershomestead@gmail.com,269-615-1542,www.hickorycornershomestead.com,www.facebook.com/HickoryCornersHomestead,,,,,,"12751 E Baseline Rd, Hickory Corners , Michigan 49060",Michigan,Hickory Corners,12751 E Baseline Rd,49060,-85.382163,42.419918,,
on-farm market,"Apr 22nd, 2022",onfarmmarket_700137_13898_20220422133913.png,700137,GCC Organics,A real down to earth experience. We practice truth in food as we don\'t spin what we do.,Delbert Garrett,info@vraefoods.com,989-718-8723,https://vraefoods.com,https://www.facebook.com/vraefoods,,,,,,"431 S Littlefield Rd, Mount Pleasant, Michigan 48858",Michigan,Mount Pleasant,431 S Littlefield Rd,48858,-84.948278,43.633948,,
on-farm market,"Apr 27th, 2016",default-onfarmmarket-4-3.jpg,701288,Galloway's Red Clay Ranch,,Joanne Galloway,galloway.joanne@gmail.com,906 322 7501,,Galloway\'s Red Clay Ranch,,,,,,"5696 W Townline Rd, Pickford, Michigan 49774",Michigan,Pickford,5696 W Townline Rd,49774,-84.481615,46.1582650,,
on-farm market,"Apr 29th, 2016",default-onfarmmarket-4-3.jpg,701334,Peaceful Produce,,Amy Ball,peacefulproducefarm@gmail.com,2314361221,,Peaceful Produce,,,,,,"3565 Elder Rd., Carp Lake, Michigan 49718",Michigan,Carp Lake,3565 Elder Rd.,49718,-84.843103,45.709447,,
on-farm market,"Aug 12th, 2014",default-onfarmmarket-4-3.jpg,700603,Papaxe2x80x99s Pumpkin Patch,,william miller jr.,papaspumpkinpatch@yahoo.com,989-773-4345,papaspumpkinpatch@yahoo.com,,,,,,,"3909 S Summerton Road, Mt. Pleasant, Michigan 48858",Michigan,Mt. Pleasant,3909 S Summerton Road,48858,-84.719181,43.571437,,
on-farm market,"Aug 13th, 2014",default-onfarmmarket-4-3.jpg,700062,Piggott's Farm Market & Bakery,,George McManus IV,info@piggottsfarmmarket.com,269-876-9269,www.piggottsfarmmarket.com,https://www.facebook.com/piggottsfarmmarketbakery,https://twitter.com/piggottsproduce,,,,,"3824 E. Napier Ave., Benton Harbor, Michigan 49022",Michigan,Benton Harbor,3824 E. Napier Ave.,49022,-86.365637,42.0906298,,
on-farm market,"Aug 13th, 2014",default-onfarmmarket-4-3.jpg,700164,Fresh Whole Rabbit,,Catalaya\'s Rabbitry,catalayarabbitry@yahoo.com,989-400-2407,www.catalayarabbitry.weebly.com,https://www.facebook.com/catalayasrabbitry,,,,,,"Friesian Lane, Lakeview, Michigan 48850",Michigan,Lakeview,Friesian Lane,48850,-85.253005,43.349196,,
on-farm market,"Aug 15th, 2014",default-onfarmmarket-4-3.jpg,700646,Nye's Apple Barn and Farms,,Angela Thompson,nyesapplebarn@hotmail.com,(269) 429-0596,www.nyesapplebarn.com,www.facebook.com/NyesAppleBarn,,,,,,"3151 Niles Avenue (M63), Saint Joseph, Michigan 49085",Michigan,Saint Joseph,3151 Niles Avenue (M63),49085,-86.459915,42.060280,,
on-farm market,"Aug 15th, 2014",default-onfarmmarket-4-3.jpg,700783,Friends Farm,,Mark Mortenson,friendsministry@yahoo.com,231-839-8816,friendsministry.net,https://www.facebook.com/FriendsMinistryLC,,,,,,"3728 S. Morey Road, Lake City, Michigan 49651",Michigan,Lake City,3728 S. Morey Road,49651,-85.215038,44.2847493,,
on-farm market,"Aug 15th, 2014",default-onfarmmarket-4-3.jpg,700843,Tomac Pumpkins and Farm Market,,Pennie Tomac,Tomacfarms@juno.com,989-845-2792,,,,,,,,"19758 S Corunna Road, Chesaning, Michigan 48616",Michigan,Chesaning,19758 S Corunna Road,48616,-84.114169,43.1322360,,
on-farm market,"Aug 18th, 2014",default-onfarmmarket-4-3.jpg,700541,Dutch Farm Market,,Barb Raak,braak@shps.org,269-806-8154,,https://www.facebook.com/pages/Dutch-Farm-Market/270598596340448,,,,,,"6967 109th Avenue, South Haven, Michigan 49090",Michigan,South Haven,6967 109th Avenue,49090,-86.224747,42.4838629,,
on-farm market,"Aug 19th, 2014",default-onfarmmarket-4-3.jpg,700424,Woodland Enterprises Inc.,,,woodlandberries@gmail.com,616-875-8853,www.woodlandberries.com,,,,,,,"10821 Pierce Street, Zeeland, Michigan 49464",Michigan,Zeeland,10821 Pierce Street,49464,-86.048985,42.957257,,
on-farm market,"Aug 21st, 2014",default-onfarmmarket-4-3.jpg,700751,Mitchell Farm,,Glen Mitchell,hollytaxcenter@yahoo.com,248-935-8328,www.mitchellfarm.biz,,,,,,,"3404 Mitchell Road, Holly, Michigan 48442",Michigan,Holly,3404 Mitchell Road,48442,-83.630219,42.849441,,
on-farm market,"Aug 23rd, 2014",default-onfarmmarket-4-3.jpg,700904,Windswept Farm,,Jeanne Weaver,weaver3@tds.net,517-468-2246,,,,,,,,"3649 E Sherwood Rd, Williamston, Michigan 48895",Michigan,Williamston,3649 E Sherwood Rd,48895,-84.226917,42.7171210,,
on-farm market,"Aug 24th, 2014",default-onfarmmarket-4-3.jpg,700916,Brandywine Farm Nursery,,Kimberly Pearson,brandywinefarm@gmail.com,5863377480,brandywinefarmnursery.com,https://www.facebook.com/BrandywineFarmNursery,,,,,http://www.brandywinefarmnursery.blogspot.com/,"5885 Lake George Rd, Dryden, Michigan 48428",Michigan,Dryden,5885 Lake George Rd,48428,-83.181137,42.890544,,
on-farm market,"Aug 25th, 2014",default-onfarmmarket-4-3.jpg,700929,tanstaafl farmstead,,john reuter,tanstaafl_farmstead@yahoo.com,269 7797985,,,,,,,,"39227 fisk lake road, paw apw, Michigan 49079",Michigan,paw apw,39227 fisk lake road,49079,-86.018937,42.2512872,,
on-farm market,"Aug 25th, 2014",default-onfarmmarket-4-3.jpg,700933,Whitfield's Raw Honey,,Bryan Whitfield,bryanaw40@aol.com,248-535-8967,wwww.simplyrawhoney.com,,,,,,,"9235 Windemere Court, Clarkston, Michigan 48348",Michigan,Clarkston,9235 Windemere Court,48348,-83.472444,42.7733080,,
on-farm market,"Aug 26th, 2014",default-onfarmmarket-4-3.jpg,700560,Shangrila Too,,,santucci.louis@gmail.com,231-499-0106,,,,,,,,"12602 Center Road, Traverse City, Michigan 49686",Michigan,Traverse City,12602 Center Road,49686,-85.515246,44.8701943,,
on-farm market,"Aug 26th, 2014",default-onfarmmarket-4-3.jpg,700692,KlineKrest Certified Organic Produce,,Larry Kline,LarryEKlines@gmail.com,616-902-1587,http://www.klinekrestcertifiedorganicproduce.com/,,,,,,,"1067 Somer Road, Lyons, Michigan 48851",Michigan,Lyons,1067 Somer Road,48851,-84.980334,42.972623,,
on-farm market,"Aug 26th, 2014",default-onfarmmarket-4-3.jpg,700953,Clor's Greenhouse,,Tony Clor,agclor@comcast.net,,,,,,,,,"3000 Brown Lane, Highland, Michigan 48357",Michigan,Highland,3000 Brown Lane,48357,-83.662443,42.661046,,
on-farm market,"Aug 26th, 2021",default-onfarmmarket-4-3.jpg,701611,Genuine Roots Farm,,Genuine Roots Farm,jeff.scott58@me.com,734-846-3833,www.GenuineRootsFarm.com,https://www.facebook.com/genuinerootsfarm,,,,,,"10371 Parshall Rd., Fenton, Michigan 48430",Michigan,Fenton,10371 Parshall Rd.,48430,-83.746991,42.693661,,
on-farm market,"Aug 27th, 2014",default-onfarmmarket-4-3.jpg,700964,Homestead Honey Farm,,Joe,,,,https://www.facebook.com/HomesteadHoneyFarm,,,,,,"175 Olsen Rd, Gwinn , Michigan 49841",Michigan,Gwinn,175 Olsen Rd,49841,-87.398745,46.405359,,
on-farm market,"Aug 28th, 2014",default-onfarmmarket-4-3.jpg,700098,New Mission Organics,,Brian Tennis,brian@newmissionorganics.com,616-403-6880,http://www.newmissionorganics.com/,https://www.facebook.com/MI.Hop.Alliance,https://www.twitter.com/michiganhops,,,,,"5790 N. Omena Rise, Omena, Michigan 49674",Michigan,Omena,5790 N. Omena Rise,49674,-85.600037,45.069524,,
on-farm market,"Aug 28th, 2014",default-onfarmmarket-4-3.jpg,700463,The Extraordinary Berry,,Charles McCallum,Theextraordinaryberry@hotmail.com,269-470-4645,Theextraordinaryberry.com,https://www.facebook.com/pages/The-Extraordinary-Berry/228277483856012,,,,,,"3091 Riverside Road, Benton Harbor, Michigan 49022",Michigan,Benton Harbor,3091 Riverside Road,49022,-86.397710,42.167229,,
on-farm market,"Aug 29th, 2014",default-onfarmmarket-4-3.jpg,700175,Battel's Sugar Bush and Heritage Farm,,Sue Stuever Battel,BattelSyrup@gmail.com,989-872-4794,www.battelsyrup.weebly.com,https://www.facebook.com/battelsyrup,,,,,,"7964 Daus Rd., Cass City, Michigan 48726",Michigan,Cass City,7964 Daus Rd.,48726,-83.118298,43.645862,,
on-farm market,"Aug 29th, 2014",default-onfarmmarket-4-3.jpg,700733,Lewis Farm Market & Petting Farm,,Char,info@LewisFarmMarket.com,231-861-5730,http://lewisfarmmarket.com/,https://www.facebook.com/LewisFarmMarket,,,,,http://lewisfarmmarket.com/category/blog/,"4180 W. M-20 (stony Lake Road), New Era, Michigan 49446",Michigan,New Era,4180 W. M-20 (stony Lake Road),49446,-86.388669,43.558496,,
on-farm market,"Aug 2nd, 2014",default-onfarmmarket-4-3.jpg,700583,Vertical Paradise Farms,,Dan Maslach,questions@vpfarms.com,5863508672,www.vpfarms.com,www.facebook.com/vpfarms,,,,,,"7344 Hammond Ave., Caledonia, Michigan 49316",Michigan,Caledonia,7344 Hammond Ave.,49316,-85.575253,42.8309000,,
on-farm market,"Aug 30th, 2014",default-onfarmmarket-4-3.jpg,700994,Pleasant Hill Farm,,Joan Donaldson,sparrow3337@gmail.com,269-5612850,http://www.pleasanthillblueberryfarm.com/,https://www.facebook.com/pages/Pleasant-Hill-Farm/82478554686?ref=hl,,,,,http://www.joandonaldson.com/blog/,"5859 124th Ave., Fennville, Michigan 49408",Michigan,Fennville,5859 124th Ave.,49408,-86.119885,42.5942229,,
on-farm market,"Aug 4th, 2014",default-onfarmmarket-4-3.jpg,700433,Brookwood Fruit Farm,,Charles Bristol,will_bristol@hotmail.com,810-798-8312,www.brookwoodfruitfarm.com,http://www.facebook.com/pages/Brookwood-Fruit-Farm/109942475759366,,,,,,"7845 Bordman Road, Almont, Michigan 48003",Michigan,Almont,7845 Bordman Road,48003,-83.029178,42.890456,,
on-farm market,"Aug 5th, 2014",default-onfarmmarket-4-3.jpg,700804,FlowerEssence of Blue Barn Farm,,Marlene Ann Epley,floweressence@tds.net,517-468-2343,,https://www.facebook.com/FlowerEssenceLlcAndBlueBarnFarmMarket?ref=hl,,,,,,"4295 Moyer Road, Williamston, Michigan 48895",Michigan,Williamston,4295 Moyer Road,48895,-84.200089,42.7082229,,
on-farm market,"Aug 5th, 2014",default-onfarmmarket-4-3.jpg,700810,deBerry Shack,,Dave Van Farowe,deberriesfarms@gmail.com,616-795-5100,,www.facebook.com/deBerryShack,,,,,,"14475 Quincy Street, Holland, Michigan 49424",Michigan,Holland,14475 Quincy Street,49424,-86.139603,42.8411303,,
on-farm market,"Aug 6th, 2014",default-onfarmmarket-4-3.jpg,700574,Riverbend Farms,,Ryan Morgan,riverbend@i2k.com,269-214-8867,greatberries.net,,,,,,,"44 72nd Street, South Haven, Michigan 49090",Michigan,South Haven,44 72nd Street,49090,-86.246094,42.4254424,,
on-farm market,"Dec 16th, 2014",default-onfarmmarket-4-3.jpg,701181,Klackle Orchards,,Natalie Klackle,apples@klackleorchards.net,616-754-8632,www.klackleorchards.com,www.facebook.com/klackleorchards,www.twitter.com/klackleorchards,,,,www.klackleorchards.com/blog/,"11466 W Carson City Rd., Greenville, Michigan 48838",Michigan,Greenville,11466 W Carson City Rd.,48838,-85.297866,43.177077,,
on-farm market,"Feb 12th, 2015",default-onfarmmarket-4-3.jpg,701209,Honor Box Produce by Crawford Farms,,Joe Crawford,joecrawfordonline@gmail.com,989-284-8251,http://www.MichiganFarmFreshProduce.com,https://www.facebook.com/MichiganFarmMarket,,,,,,", Clare, Michigan 48617",Michigan,Clare,,48617,-84.768971,43.851510,,
on-farm market,"Feb 14th, 2016",default-onfarmmarket-4-3.jpg,701317,"Wasem Fruit Farm, LLC",,Bruce Upston,wasem@wasemfruitfarm.com,7344822342,www.wasemfruitfarm.com,www.facebook.com/pages/Wasem-Fruit-Farm/255034514021,,,,,,"6580 Judd Rd, Milan, Michigan 48160",Michigan,Milan,6580 Judd Rd,48160,-83.626685,42.140496,,
on-farm market,"Feb 19th, 2022",default-onfarmmarket-4-3.jpg,701637,Berry Brothers Retail,,Heidi Keister,heidi@walkerbb.com,269-657-3871,https://www.berrybrothersretail.com/,https://www.facebook.com/Berry-Brothers-Retail-105317065091600,,,,,,"37146 30th Street, Paw Paw, Michigan 49079",Michigan,Paw Paw,37146 30th Street,49079,-85.892177,42.214235,,
on-farm market,"Feb 25th, 2015",default-onfarmmarket-4-3.jpg,701217,Wells Orchards,,,wellsorchards@gmail.com,616 453-3927,www.wellsorchards.com,https://www.facebook.com/pages/Wells-Orchards/122028811170560?ref=ts,,,,,,"O-8993 Kenowa Ave SW, Grand Rapids, Michigan 49534",Michigan,Grand Rapids,O-8993 Kenowa Ave SW,49534,-85.783388,42.932177,,
on-farm market,"Feb 5th, 2015",default-onfarmmarket-4-3.jpg,701205,Maia Organics,,Phyllis Shilling,phyllisjshilling@gmail.com,616 255 5919,,,,,,,,", sidney, Michigan",Michigan,sidney,,,-85.193087,43.257295,,
on-farm market,"Feb 8th, 2021",default-onfarmmarket-4-3.jpg,701581,Peace Tree Parks,,Eric Andrews,info@peacetreeparks.org,3132820135,www.PeaceTreeParks.org,https://www.facebook.com/peacetreeparks/,,,,,,"3409 E Vernor, Detroit, Michigan 48207",Michigan,Detroit,3409 E Vernor,48207,-83.102237,42.383037,,
on-farm market,"Jan 1st, 2015",default-onfarmmarket-4-3.jpg,701185,Goodrich Acres,,R. Darlene Drwal,rddrwal@yahoo.com,810 429-2223,,,,,,,,"8416 Gale Rd, Goodrich, Michigan 48438",Michigan,Goodrich,8416 Gale Rd,48438,-83.534492,42.906654,,
on-farm market,"Jan 28th, 2015",default-onfarmmarket-4-3.jpg,701199,Creswick Farms,,Andrea & Nathan Creswick,contactus@creswickfarms.com,616/837-9226,www.CreswickFarms.com,https://www.facebook.com/CreswickFarms,,,,,,"6500 Rollenhagen Rd, Ravenna, Michigan 49451",Michigan,Ravenna,6500 Rollenhagen Rd,49451,-85.994367,43.134669,,
on-farm market,"Jan 30th, 2017",default-onfarmmarket-4-3.jpg,701385,English Orchards & Family Farm,,Jamess English,teacher99_2000@yahoo.com,989-858-0972,,,,,,,,"302 Thumb Lake Rd, Vanderbilt, Michigan 49795",Michigan,Vanderbilt,302 Thumb Lake Rd,49795,-84.680748,45.186933,,
on-farm market,"Jan 31st, 2017",default-onfarmmarket-4-3.jpg,701387,Salad Central,,Mark Schoonover,bearcats7@sbcglobal.net,6163752693,,Salad Central,,,,,,"4763 Baldwin St, Hudsonville, Michigan 49426",Michigan,Hudsonville,4763 Baldwin St,49426,-85.900775,42.907060,,
on-farm market,"Jan 8th, 2020",default-onfarmmarket-4-3.jpg,701497,Frontier Farms,,Laurie Hunter,michiganfrontierfarms@hotmail.com,970-729-6252,michiganfrontierfarms.com,,,,,,,"2073 S M 65, Whittemore, Michigan 48770",Michigan,Whittemore,2073 S M 65,48770,-83.802520,44.216309,,
on-farm market,"Jul 12th, 2015",default-onfarmmarket-4-3.jpg,701283,Beery Farms of Michigan LLC,,Maynard Beery,beeryfarm@aol.com,517-676-4686,,,,,,,,"849 N. Aurelius Road, Mason, Michigan 48854",Michigan,Mason,849 N. Aurelius Road,48854,-84.526718,42.6017140,,
on-farm market,"Jul 26th, 2014",default-onfarmmarket-4-3.jpg,700334,K's Acres - A North Sand Lake Fruit and Berry Farm,,Tom,Hllsdltom@aol.com,517-437-7054,K\'s Acres@facebook.com,https://www.facebook.com/pages/Ks-Acres-Orchard-A-North-Sand-lake-Fruit-and-Berry-farm/147653817831,,,,,,"4680 Fitzpatrick Rd, Hillsdale, Michigan 49242",Michigan,Hillsdale,4680 Fitzpatrick Rd,49242,-84.701342,41.944006,,
on-farm market,"Jul 26th, 2014",default-onfarmmarket-4-3.jpg,700378,Coveyou Scenic Farm Market,,David Coveyou,coveyoufarm@gmail.com,231-348-1278,coveyouscenicfarm.com,https://www.facebook.com/pages/Coveyou-Scenic-Farm-Market/362874771540,,,,,,"4160 US131 South, Petoskey, Michigan 49770",Michigan,Petoskey,4160 US131 South,49770,-84.966729,45.317777,,
on-farm market,"Jul 26th, 2014",default-onfarmmarket-4-3.jpg,700498,Black Star Farms,,Donald Coe,dcoe@blackstarfarms.com,231-944-1297q,www.blackstarfarms.com,,,,,,,"10844 E Revold Road, Suttons Bay, Michigan 49682",Michigan,Suttons Bay,10844 E Revold Road,49682,-85.637741,44.940501,,
on-farm market,"Jul 27th, 2014",default-onfarmmarket-4-3.jpg,700039,Shady Side Farm,,Mike Bronkema,shadysidefarmmichigan@gmail.com,616-786-3827,http://www.shadysidefarm.com,https://www.facebook.com/shadysidefarm,,,,,http://www.shadysidefarm.blogspot.com,"13275 Blair Street, Holland, Michigan 49424",Michigan,Holland,13275 Blair Street,49424,-86.111787,42.892902,,
on-farm market,"Jul 27th, 2014",default-onfarmmarket-4-3.jpg,700064,Phillips Orchards & Cider Mill,,Brian Phillips,brian.phillips@phillipsorchards.com,989-682-4430,www.phillipsorchards.com,https://www.facebook.com/PhillipsOrchards,https://twitter.com/phillipsorchard,,,,,"1174 W Gratiot County Line Rd, Saint Johns, Michigan 48879",Michigan,Saint Johns,1174 W Gratiot County Line Rd,48879,-84.622316,43.117405,,
on-farm market,"Jul 27th, 2014",default-onfarmmarket-4-3.jpg,700088,Origins Hobby Farm,,Kathleen Nestell,Kathy@originshobbyfarm.com,616-717-8651,Www.orriginshobbyfarm.com,https://www.facebook.com/originshobbyfarm,https://www.twitter.com/originshf,,,,www.originshobbyfarm.com/blog.html,"6110 Robertson Rd, Middleville, Michigan 49333",Michigan,Middleville,6110 Robertson Rd,49333,-85.427445,42.7417363,,
on-farm market,"Jul 27th, 2014",default-onfarmmarket-4-3.jpg,700136,Good Land Growers,,Gail Rivera,glg@goodlandgrowers.com,616-947-0038,Http://www.goodlandgrowers.com,https://www.facebook.com/GoodLandGrowers,,,,,,"11901 South Greenville Rd, Greenville, Michigan 48838",Michigan,Greenville,11901 South Greenville Rd,48838,-85.263034,43.1209267,,
on-farm market,"Jul 27th, 2014",default-onfarmmarket-4-3.jpg,700362,Maria & David Huff Farm Products,,Maria Huff,farm_fresh_produced@yahoo.com,2488429252,,https://m.facebook.com/profile.php?id=222802057812310&ref=bookmark,,,,,,"1460 W Wardlow Rd, Highland, Michigan 48357",Michigan,Highland,1460 W Wardlow Rd,48357,-83.635653,42.6555660,,
on-farm market,"Jul 27th, 2014",default-onfarmmarket-4-3.jpg,700364,Evergreen Lane Farm & Creamery,,Catherine Halinski,evergreenlanefarm@gmail.com,269-543-9900,www.evergreenlanefarm.com,www.Facebook.com/EvergreenLaneArtisanCheese,,,,,,"1824 66th St., Fennville, Michigan 49408",Michigan,Fennville,1824 66th St.,49408,-86.189254,42.5511441,,
on-farm market,"Jul 27th, 2014",default-onfarmmarket-4-3.jpg,700455,Adams Farms,,Bill Adams,toquin1@myway.com,269 214 0873,www.facebook.com/Adams.Blueberry.Farms,https://www.facebook.com/Adams.Blueberry.Farms,,,,,,"69676 Cr376 (40th Ave), Hartford, Michigan 49057",Michigan,Hartford,69676 Cr376 (40th Ave),49057,-86.220746,42.257492,,
on-farm market,"Jul 27th, 2014",default-onfarmmarket-4-3.jpg,700599,Peacock Road Family Farm,,Ed and Diana Carpenter,info@peacockrff.com,517-651-9193,www.peacockrff.com,www.facebook.com/peacockroadtreefarm,,,,,,"11854 Peacock Road, Laingsburg, Michigan 48848",Michigan,Laingsburg,11854 Peacock Road,48848,-84.369377,42.844666,,
on-farm market,"Jul 27th, 2014",default-onfarmmarket-4-3.jpg,700718,Ives Organics,,Corey Ives,ivesorganics@gmail.com,2484698347,,www.Facebook.com/IvesOrganics,,,,,,"2060 Bladwin Road, Lapeer, Michigan 48446",Michigan,Lapeer,2060 Bladwin Road,48446,-83.340607,42.997927,,
on-farm market,"Jul 28th, 2014",default-onfarmmarket-4-3.jpg,700003,Witamy Farm,,Xania Payne,benandxania@witamyfarm.com,734-734-0611,www.witamyfarm.com,https://www.facebook.com/witamy.farm,,,,,,"3230 Portage Rd N, Grass Lake, Michigan 49240",Michigan,Grass Lake,3230 Portage Rd N,49240,-84.275871,42.282429,,
on-farm market,"Jul 28th, 2014",default-onfarmmarket-4-3.jpg,700072,Schwalliers Country Basket,,Justin Kolarik,apples@schwalliers.com,616-785-9896,,https://www.facebook.com/pages/Schwalliers-Country-Basket/57481257124,,,,,,"1185 9 Mile Rd. NW, Sparta, Michigan 49345",Michigan,Sparta,1185 9 Mile Rd. NW,49345,-85.697411,43.101815,,
on-farm market,"Jul 28th, 2014",default-onfarmmarket-4-3.jpg,700218,Swallowtail Farm,,Anne Rauscher,swallowtailfarm@gmail.com,517-980-6634,http://www.swallowtailfarm.net/,https://www.facebook.com/pages/Swallowtail-Farm/299185864935?ref_type=bookmark,,,,,http://swallowtailfarm.blogspot.com/,"1633 Hagadorn Rd, Mason, Michigan 48854",Michigan,Mason,1633 Hagadorn Rd,48854,-84.458512,42.6305369,,
on-farm market,"Jul 28th, 2014",default-onfarmmarket-4-3.jpg,700611,Satterlee Small Fruits,,David Satterlee,oliversam@frontier.com,231-861-2755,,,,,,,,"3056 West Buchanan, Shelby, Michigan 49455",Michigan,Shelby,3056 West Buchanan,49455,-86.354240,43.6310020,,
on-farm market,"Jul 28th, 2014",default-onfarmmarket-4-3.jpg,700701,Kastanu Farm,,artur losse,kastanufarm@aol.com,231 264 6055,kastanufarm@aol.com,,,,,,,"4781 Powell Road, Kewadin, Michigan 49648",Michigan,Kewadin,4781 Powell Road,49648,-85.332570,44.961640,,
on-farm market,"Jul 30th, 2014",default-onfarmmarket-4-3.jpg,700000,"Zatkovich Pastures, LLC",,Daniel Zatkovich,dan@zatkovichpastures.com,517-851-4352,http://www.zatkovichpastures.com,https://www.facebook.com/ZatkovichPasturesLLC,,,,,,"17050 Kane Rd, Stockbridge, Michigan 49285",Michigan,Stockbridge,17050 Kane Rd,49285,-84.143136,42.4932460,,
on-farm market,"Jul 30th, 2014",default-onfarmmarket-4-3.jpg,700067,Brass Ring Beef,,David Parks,dparks@parkscompanies.biz,248-765-7844,www.parksshowcattle.com,https://www.facebook.com/brassringbeef,,,,,,"2883 Wilder Road, Metamora, Michigan 48083",Michigan,Metamora,2883 Wilder Road,48083,-83.241356,42.9761288,,
on-farm market,"Jul 30th, 2014",default-onfarmmarket-4-3.jpg,700118,Kaminski Farms Meats,,Linda Kaminski,dlkfarm@sbcglobal.net,269-756-7457,www.kaminskifarmsmeats.com,https://www.facebook.com/KaminskiFarmsMeatsKaminski,,,,,,"16682 Schwark Rd, Three Oaks, Michigan 49128",Michigan,Three Oaks,16682 Schwark Rd,49128,-86.629591,41.8138326,,
on-farm market,"Jul 30th, 2014",default-onfarmmarket-4-3.jpg,700226,Spartan Country Meats,,Christine Miller,spartancountrymeats@gmail.com,517-375-6337,www.spartancountrymeats.com,https://www.facebook.com/pages/Spartan-Country-Meats/213932578620907?sk=timeline&ref=page_internal,https://www.twitter.com/spartancntrymts,,,,,"4039 Dennis Rd., Webberville, Michigan 48892",Michigan,Webberville,4039 Dennis Rd.,48892,-84.201761,42.616054,,
on-farm market,"Jul 30th, 2014",default-onfarmmarket-4-3.jpg,700345,Graham's Organics,,James Graham,grahamsorganics@att.net,989-433-5900,grahamsorganics.com,,,,,,,"3654 E. Weidman Rd., Rosebush, Michigan 48878",Michigan,Rosebush,3654 E. Weidman Rd.,48878,-84.773415,43.683767,,
on-farm market,"Jul 30th, 2014",default-onfarmmarket-4-3.jpg,700556,Michigan Flower Farm,,Renee\' Walter,service@michiganflowerfarm.com,248-390-7266,http://michiganflowerfarm.com/flowers/index.php?main_page=,,,,,,,"22460 Garfield Road, Northville, Michigan 48167",Michigan,Northville,22460 Garfield Road,48167,-83.531816,42.4511380,,
on-farm market,"Jul 30th, 2014",default-onfarmmarket-4-3.jpg,700577,Oceana Winery & Vineyard,,Renae Goralski,Renae@OceanaWinery.com,231-343-0038,www.oceanawinery.com,https://www.facebook.com/pages/Oceana-Winery-Vineyard/180943698619727,,,,,,"4980 South 52nd Avenue, New Era, Michigan 49446",Michigan,New Era,4980 South 52nd Avenue,49446,-86.427501,43.5553953,,
on-farm market,"Jul 30th, 2014",default-onfarmmarket-4-3.jpg,700669,Brenskes Blueberries,,,mbrenske@yahoo.com,989-928-7887 / 989-2,,https://www.facebook.com/pages/Brenskes-Blueberry-Farm/386802954774918?sk=timeline,,,,,,"17505 Roosevelt Rd, Hemlock, Michigan 48626",Michigan,Hemlock,17505 Roosevelt Rd,48626,-84.259970,43.361975,,
on-farm market,"Jul 30th, 2014",default-onfarmmarket-4-3.jpg,700767,Westview Farm,,,gwestview@aol.com,269-668-3603,,,,,,,,"60636 County Road 652, Mattawan, Michigan 49071",Michigan,Mattawan,60636 County Road 652,49071,-85.784927,42.198224,,
on-farm market,"Jul 31st, 2014",default-onfarmmarket-4-3.jpg,700020,"Lavender Hill Farm of Niles, MI LLC",,Martha Wilczynski,info@thelavenderhill.com,269-684-0123,www.thelavenderhill.com,https://www.facebook.com/thelavenderhill,,,,,,"1219 Morris Dr. (lower level, rear), Niles, Michigan 49120",Michigan,Niles,"1219 Morris Dr. (lower level, rear)",49120,-86.301255,41.839746,,
on-farm market,"Jul 31st, 2014",default-onfarmmarket-4-3.jpg,700785,Frank Farms,,Joy Moore,farmgirljoy@hotmail.com,269-461-4125,www.frankfarms.com,https://www.facebook.com/pages/Frank-Farms/321419985624,,,,,,"8249 Deans Hill Road, Berrien Center, Michigan 49102",Michigan,Berrien Center,8249 Deans Hill Road,49102,-86.258689,41.957279,,
on-farm market,"Jul 5th, 2016",default-onfarmmarket-4-3.jpg,701224,Michigan Garlic Farm,,Les & Donna Abel,abelsgarlic@gmail.com,810-923-7604,www.michigangarlicfarm.com,michigan garlic,,,,,,"1048 Sarah Dr., Pinckney, Michigan 48169",Michigan,Pinckney,1048 Sarah Dr.,48169,-83.920852,42.4257150,,
on-farm market,"Jun 15th, 2017",default-onfarmmarket-4-3.jpg,701410,Fruit Acres Farm Market & U-Pick,,Annette Bjorge,fruitacres@iserv.net,269-468-3668,fruitacresfarms.com,https://www.facebook.com/fruitacres/,,,,,,"3452 Friday Rd., Coloma, Michigan 49038",Michigan,Coloma,3452 Friday Rd.,49038,-86.306406,42.1744010,,
on-farm market,"Jun 22nd, 2021",default-onfarmmarket-4-3.jpg,701603,Frontiere Farm House,,Nicole Goetz,frontierefarmhouse@gmail.com,2698306508,frontierefarm.house,facebook.com/frontierefarmhouse,,,,,frontierefarm.house,"11211 22 Mile Rd, Marshall, Michigan 49068",Michigan,Marshall,11211 22 Mile Rd,49068,-84.869149,42.234523,,
on-farm market,"Mar 13th, 2015",default-onfarmmarket-4-3.jpg,700354,Fruit Ridge Hayrides LLC,,Nancy Briggs,fruitridgehayrides@msn.com,616-887-5052,www.fruitridgehayrides.com,https://www.facebook.com/fruitridge.hayrides,,,,,,"11966 Fruit Ridge Ave., Kent City, Michigan 49330",Michigan,Kent City,11966 Fruit Ridge Ave.,49330,-85.769231,43.183267,,
on-farm market,"Mar 19th, 2015",default-onfarmmarket-4-3.jpg,700268,Destiny Farm- FarmStand,,Joni Lickey,Mlickey105@aol.com,248-789-5384,,,,,,,,"13078 Windy Hollow, Brighton Township, Michigan 48380",Michigan,Brighton Township,13078 Windy Hollow,48380,-83.691015,42.533793,,
on-farm market,"Mar 23rd, 2015",default-onfarmmarket-4-3.jpg,700015,Two Sparrows Farm LLC,,Daniel and Whitney Belprez,info@twosparrowsfarm.com,517-214-7447,https://twosparrowsfarm.wordpress.com/,https://www.facebook.com/TwoSparrowsFarm,,,,,,"9436 Peck Lake Rd., Lowell, Michigan 49331",Michigan,Lowell,9436 Peck Lake Rd.,49331,-85.261964,42.900684,,
on-farm market,"Mar 23rd, 2015",default-onfarmmarket-4-3.jpg,700549,Blueberry Lane Farms,,Alicia Cummings,blueberrylanefarms@hotmail.com,810-793-4590,www.blueberrylanefarms.com,Blueberry Lane Farms,,,,,,"13240 Blueberry Lane, Otter Lake, Michigan 48464",Michigan,Otter Lake,13240 Blueberry Lane,48464,-83.470335,43.1983610,,
on-farm market,"Mar 23rd, 2015",default-onfarmmarket-4-3.jpg,700825,Immerfrost Farm,,David Eagleton,immerfrost.farm@gmail.com,9207868088,ImmerfrostFarm.com,http://goo.gl/qlvwg,https://www.twitter.com/ImmerfrostFarm,,,,,"N8536 Pelkey Rd K 3, Stephenson, Michigan 49887",Michigan,Stephenson,N8536 Pelkey Rd K 3,49887,-87.547894,45.421889,,
on-farm market,"Mar 28th, 2015",default-onfarmmarket-4-3.jpg,700774,Green Oak Farmers and Community Market,,Joe Otis,greenoakmarket@gmail.com,313-590-1960,www.facebook.com/GreenOakMarket,www.facebook.com/GreenOakMarket,,,,,,"11299 Grand River Avenue, Brighton, Michigan 48116",Michigan,Brighton,11299 Grand River Avenue,48116,-83.727164,42.5159990,,
on-farm market,"Mar 8th, 2017",default-onfarmmarket-4-3.jpg,701395,Grange Fruit Farm,,Robert Versluis,rbv97@aol.com,616-862-5408,grangefruit.com,Grange Fruit Farm,,,,,,"10724 Grange Ave NE, Rockford, Michigan 49341",Michigan,Rockford,10724 Grange Ave NE,49341,-85.625363,43.159966,,
on-farm market,"May 18th, 2015",default-onfarmmarket-4-3.jpg,701260,Peckham Farms,,David Allen,dallen@peckham.org,5173164102,http://www.peckham.org/Business-Operations/Peckham-Farms.aspx/,https://www.facebook.com/Peckham.Farms,,,,,,"5408 W. Grand River Rd., Lansing, Michigan 48906",Michigan,Lansing,5408 W. Grand River Rd.,48906,-84.628209,42.777257,,
on-farm market,"May 24th, 2016",default-onfarmmarket-4-3.jpg,701338,"Kitipi Farm, llc",,Erin Swystun Kitipi,kitipifarm@gmail.com,269.491.9232,,"Kitipi Farm, llc",,,,,,"130 Hastings Ct, Bangor , Michigan 49013",Michigan,Bangor,130 Hastings Ct,49013,-86.106671,42.321930,,
on-farm market,"May 2nd, 2017",default-onfarmmarket-4-3.jpg,701406,Speaker Lone Oak Orchard,,Darlene Dambacher,speakerorchard@frontier.com,810 387-21210,speakerorchard.com,Speaker orchard,,,,,,"7353 Brockway Rd., Melvin, Michigan 48454",Michigan,Melvin,7353 Brockway Rd.,48454,-82.801607,43.207260,,
on-farm market,"Nov 14th, 2014",default-onfarmmarket-4-3.jpg,701170,L& L Bull,,L&L Bull-  Lynn Bull,applemom7@yahoo.com,616 675-4288,llbull,L&LBull,,,,,,"16530 Hall Rd, Casnovia, Michigan 49318",Michigan,Casnovia,16530 Hall Rd,49318,-85.836698,43.2494138,,
on-farm market,"Nov 19th, 2014",default-onfarmmarket-4-3.jpg,701172,Hanulcik Farm Market,,Carol Hanulcik,hanulcikfarm@gmail.com,616-527-3630,www.farm-grown.com,,,,,,,"1425 N. State Rd. (M-66) at the corner of Dildine, Ionia, Michigan 48846",Michigan,Ionia,1425 N. State Rd. (M-66) at the corner of Dildine,48846,-85.075274,43.008938,,
on-farm market,"Oct 16th, 2014",default-onfarmmarket-4-3.jpg,701142,"Happy Buddha Farm, LLC",,Happy Buddha Farm,braman.marty@gmail.com,616-460-6825,www.happybuddhafarm.com,facebook.com/happybuddhafarm,,,,,,"10423 Vergennes St, Lowell, Michigan 49331",Michigan,Lowell,10423 Vergennes St,49331,-85.410060,42.958307,,
on-farm market,"Oct 18th, 2014",default-onfarmmarket-4-3.jpg,701145,Coon's Berry Farm,,Jerry and Yulia Coon,coonsberryfarm@hotmail.com,989-948-0773,www.coonsberryfarm.com,,,,,,,"2724 N Lewis Rd, Coleman, Michigan 48618",Michigan,Coleman,2724 N Lewis Rd,48618,-84.566845,43.690128,,
on-farm market,"Oct 1st, 2014",default-onfarmmarket-4-3.jpg,700760,Christofferson Farms,,carole christofferson,hattrickred@gmail.com,231-845-5831,,,,,,,,"3441 South Morton Road, Ludington, Michigan 49431",Michigan,Ludington,3441 South Morton Road,49431,-86.358937,43.891499,,
on-farm market,"Sep 10th, 2014",default-onfarmmarket-4-3.jpg,700376,Greener Grass Farms,,Dan Marsh,dan@marshbrothersonline.com,517-425-7049,www.greenergrassfarms.com,,,,,,,"9800 Youngs Rd., Quincy, Michigan 49082",Michigan,Quincy,9800 Youngs Rd.,49082,-84.804553,41.9123800,,
on-farm market,"Sep 11th, 2014",default-onfarmmarket-4-3.jpg,701055,The Blue Barn,,Andrew Smith,ads26andrew@gmail.com,269-781-4523,http://www.thebluebarninmarshall.com/,,,,,,,"16147 US HWY 27 N, Marshall, Michigan 49068",Michigan,Marshall,16147 US HWY 27 N,49068,-84.964657,42.307229,,
on-farm market,"Sep 12th, 2014",default-onfarmmarket-4-3.jpg,701058,S&C Nelson Farm,,Steve or Caton Nelson,nelsons7@msu.edu,9062655684,,,,,,,,"301 Nelson Road, Iron River, Michigan 49935",Michigan,Iron River,301 Nelson Road,49935,-88.533402,46.0944389,,
on-farm market,"Sep 16th, 2014",default-onfarmmarket-4-3.jpg,700635,A.W. Overhiser Orchards,,Allan Overhiser,awo@i2k.com,616-836-3298,www.overhiserorchards.com,www.facebook.com/OverhiserOrchards,,,,,,"6405 109th Avenue, South Haven, Michigan 49090",Michigan,South Haven,6405 109th Avenue,49090,-86.169217,42.483804,,
on-farm market,"Sep 18th, 2014",default-onfarmmarket-4-3.jpg,700609,Orchard Beach Farm,,Philip Muir,orchardbeachfarm@dmcibb.net,517-639-4609,www.farmermaps.com,,,,,,,"130 Orchard Trail, Quincy, Michigan 49082",Michigan,Quincy,130 Orchard Trail,49082,-84.912234,41.890472,,
on-farm market,"Sep 3rd, 2014",default-onfarmmarket-4-3.jpg,701014,BP Farms,,Bill Picken,bpfarmsllc@gmail.com,734-529-2032,,http://www.facebook.com/BPFarmsLLC/,,,,,,"6300 Rea Rd, Dundee, Michigan 48131",Michigan,Dundee,6300 Rea Rd,48131,-83.722228,41.986419,,
on-farm market,"Sep 6th, 2017",default-onfarmmarket-4-3.jpg,701428,Swoish Farms,,Gary Swoish,swoishfarmsllc@yahoo.com,8106884019,,https://www.facebook.com/swoishfarms/,,,,,,"4867 Swoish Road, North Branch, Michigan 48461",Michigan,North Branch,4867 Swoish Road,48461,-83.160217,43.1868314,,
on-farm market,"Sep 9th, 2016",default-onfarmmarket-4-3.jpg,701369,Borderline Farm,,Norm Allen,borderline.farm@hotmail.com,269-506-3012,http://borderline.farm,https://www.facebook.com/BorderlineFarm.MI,,,,,,"71269 Bauman Rd, Sturgis , Michigan 49091",Michigan,Sturgis,71269 Bauman Rd,49091,-85.337939,41.7610830,,
