Type,ModifyDate,Image,ListingID,Name,Description,ContactName,ContactEmail,ContactPhone,Website,Facebook,Twitter,Instagram,Pinterest,Youtube,Blog,Address,State,City,Street,Zip,Longitude,Latitude,Dates,Products
on-farm market,"Aug 25th, 2014",default-onfarmmarket-4-3.jpg,700925,Real-Ranch LLC,,Shari Morrison,paulshari@real-ranch.com,580-777-4799,real-ranch.com,https://www.facebook.com/realranch,,,,,,"11714 CR 1690, Roff, Oklahoma 74865",Oklahoma,Roff,11714 CR 1690,74865,-96.745575,34.564565,,
on-farm market,"Aug 26th, 2014",default-onfarmmarket-4-3.jpg,700950,ZaKK Farms; Home of OKBelties,,Jason & Linda Fly,okbelties@gmail.com,(405)-432-8758,okbelties.weebly.com,,,,,,,"32757 Hwy 9, Pink , Oklahoma 74873",Oklahoma,Pink,32757 Hwy 9,74873,-97.074740,35.257996,,
on-farm market,"Aug 28th, 2014",default-onfarmmarket-4-3.jpg,700976,Inslee Fish Farm,,Donald Inslee,bassholeofoklahoma@hotmail.com,580-836-7150,,https://www.facebook.com/pages/Inslee-Fish-Farm/123937417683643,,,,,,"1400 Seeley Chapel Rd, Connerville, Oklahoma 74836",Oklahoma,Connerville,1400 Seeley Chapel Rd,74836,-96.628693,34.460187,,
on-farm market,"Aug 2nd, 2014",default-onfarmmarket-4-3.jpg,700797,Endicott Farms LLC,,Betsy Endicott,endicottfarms@yahoo.com,918-344-4582,www.endicottfarms.com,,,,,,,"211th Between Harvard & Lewis, Liberty-Mounds, Oklahoma 74047",Oklahoma,Liberty-Mounds,211th Between Harvard & Lewis,74047,-95.961522,35.856606,,
on-farm market,"Jul 21st, 2016",default-onfarmmarket-4-3.jpg,701364,Red Truck Farm,,Susan Howell,redtruckfarm@hotmail.com,580-919-0967,,https://www.facebook.com/Red-Truck-Farm-1441855589413794/?ref=bookmarks,,,,,,"16963 CR NS 227, Manitou, Oklahoma 73555",Oklahoma,Manitou,16963 CR NS 227,73555,-98.933473,34.557891,,
on-farm market,"Jul 26th, 2014",default-onfarmmarket-4-3.jpg,700559,Peach Crest Farm,,,sbergen1@cox.net,405-650-0804,,,,,,,,"10219 us hwy 177, Stratford, Oklahoma 74872",Oklahoma,Stratford,10219 us hwy 177,74872,-96.966834,34.860704,,
on-farm market,"Jul 26th, 2014",default-onfarmmarket-4-3.jpg,700793,Wild Things Farm,,Catherine Greene,farmer@wildthingsfarm.com,918-626-4053,www.wildthingsfarm.com,www.facebook.com/pages/Wild-Things-Farm/309163820790,,,,,,"700 Beaty Avenue, Pocola, Oklahoma 74902",Oklahoma,Pocola,700 Beaty Avenue,74902,-94.446848,35.303899,,
on-farm market,"Jul 27th, 2014",default-onfarmmarket-4-3.jpg,700649,Forbidden Fruits Farm,,Alexis Kaiser,alexis.kaiser@gmail.com,4057577670,www.forbiddenfruitsfarm.com,www.facebook.com/forbiddenfruitsfarm,,,,,forbiddenfruitsfarm.blogspot.com,"23200 CR 1480, Cyril, Oklahoma 73029",Oklahoma,Cyril,23200 CR 1480,73029,-98.215386,34.869930,,
on-farm market,"Jul 28th, 2014",default-onfarmmarket-4-3.jpg,700460,Chisholm Trail Farm LLC,,Tim Boehrer,tim@chisholmtrailfarm.com,405-850-2207,www.chisholmtrailfarm.com,,,,,,,"1010 CS 2930, Tuttle, Oklahoma 73089",Oklahoma,Tuttle,1010 CS 2930,73089,-97.777551,35.245987,,
on-farm market,"Jul 29th, 2014",default-onfarmmarket-4-3.jpg,700544,Buffalo Creek Berry Farm,,Bobby Sloan Jr.,bobby.sloan@yahoo.com,405-412-4515,,,,,,,,"9211 Sloan Rd, Mustang, Oklahoma 73064",Oklahoma,Mustang,9211 Sloan Rd,73064,-97.681934,35.373981,,
on-farm market,"Jul 29th, 2014",default-onfarmmarket-4-3.jpg,700798,SandStone Spring Vineyard,,Bobby Sloan,bobby.sloan@yahoo.com,405-830-8067,,,,,,,,"9211 Sloan Rd., Mustang , Oklahoma 73064",Oklahoma,Mustang,9211 Sloan Rd.,73064,-97.681907,35.374633,,
on-farm market,"Jul 30th, 2014",default-onfarmmarket-4-3.jpg,700429,Wind Drift Orchards,,Bill Spencer,winddriftorchards@gmail.com,(405) 454-6618 and (,www.winddriftorchards.com,https://www.facebook.com/pages/Wind-Drift-Orchards/465391816870294,,,,,,"19400 Ne 63rd Street 18499 NE 50th Street, Harrah, Oklahoma 73045",Oklahoma,Harrah,19400 Ne 63rd Street 18499 NE 50th Street,73045,-97.186475,35.535937,,
on-farm market,"Mar 2nd, 2015",default-onfarmmarket-4-3.jpg,701211,Vision Farms,,Vision Farms,Johnny8@cox.net,405-519-3996,http://vision-farms.org,https://www.facebook.com/visionfarms,,,,,,"12th and Vilas, Guthrie , Oklahoma 73044",Oklahoma,Guthrie,12th and Vilas,73044,-97.443558,35.875703,,
on-farm market,"Mar 7th, 2017",default-onfarmmarket-4-3.jpg,701393,Woods & Waters Winery & Vineyards & Berry Farm,,Alexis Kaiser,alexis@woodsandwaterswinery.com,405-757-7670,www.woodsandwaterswinery.com,Facebook.com/woodsandwaters/,,,,,,"17153 CR 1380, Anadarko, Oklahoma 73005",Oklahoma,Anadarko,17153 CR 1380,73005,-98.326276,35.013603,,
on-farm market,"May 7th, 2021",default-onfarmmarket-4-3.jpg,701599,800 Oaks Farm&Ranch,,Regina Smith,our800oaksranch@hotmail.com,405-473-6580,,https://www.facebook.com/800-Oaks-Farm-Ranch-362168957769623/?ref=py_c,,,,,,"53622 W 211th Road S, Depew, Oklahoma 74028",Oklahoma,Depew,53622 W 211th Road S,74028,-96.591224,35.855424,,
on-farm market,"Oct 1st, 2014",default-onfarmmarket-4-3.jpg,700435,Wild Rose Strawberry Farm,,,wildrosestrawberryfarm@gmail.com,918-785-2122,wild rose strawberry farm @g mail.com,,,,,,,"7645 N 429 Road, Adair, Oklahoma 74330",Oklahoma,Adair,7645 N 429 Road,74330,-95.368498,36.418079,,
on-farm market,"Oct 6th, 2014",default-onfarmmarket-4-3.jpg,701119,Crispin Murray Grey Grass-Fed Beef,,,beef@crispin-grassfedbeef.com,580-661-1637,http://crispin-grassfedbeef.com,,,,,,,"409 N 11th, Thomas, Oklahoma 73669",Oklahoma,Thomas,409 N 11th,73669,-98.751283,35.747020,,
on-farm market,"Sep 16th, 2014",default-onfarmmarket-4-3.jpg,700563,HoneyBear Ranch,,Sandra Harris,sandy@honeybear-ranch.com,580-584-6022,www.honeybear-ranch.com,HoneyBear Ranch,,,,,,"897 Redwood Road, Broken Bow, Oklahoma 74728",Oklahoma,Broken Bow,897 Redwood Road,74728,-94.774638,34.054489,,
on-farm market,"Sep 17th, 2014",default-onfarmmarket-4-3.jpg,700499,Whispering Springs Greenhouse,,david yates,davidyateswsg@gmail.com,405-863-1016,,,,,,,,"12647 SW 104th Street, Mustang, Oklahoma 73064",Oklahoma,Mustang,12647 SW 104th Street,73064,-97.754910,35.363025,,
on-farm market,"Sep 19th, 2014",default-onfarmmarket-4-3.jpg,700612,The Peppermint Dragon Herb and Oriental Gardens,,,okiedragon@yahoo.com,918-224-5337,,,,,,,,"7920 W 133 St So, Sapulpa, Oklahoma 74066",Oklahoma,Sapulpa,7920 W 133 St So,74066,-96.080329,35.970830,,
on-farm market,"Sep 9th, 2021",default-onfarmmarket-4-3.jpg,701614,"West Point Beef and Cattle Company, LLC",,SYLVIA K DEWITT,sylvia@westpointbeef.com,4057476262,https://westpointbeef.com/,https://www.facebook.com/westpointbeef,,,,,,"5900 N. West Point Road, Glencoe, Oklahoma 74032",Oklahoma,Glencoe,5900 N. West Point Road,74032,-96.855802,36.183214,,
